ONEWEB-0055             
1 45443U 20020V   24069.75740288  .00000257  00000+0  68924-3 0  9991
2 45443  87.9034 185.9749 0001634 103.7715 256.3595 13.11417580193902
ONEWEB-0093             
1 45444U 20020W   24070.34097681 -.00000510  00000+0 -14735-2 0  9995
2 45444  87.9034 185.8391 0001637  97.5356 262.5958 13.11414798194056
ONEWEB-0029             
1 45445U 20020X   24069.59749115  .00000014  00000+0  32736-5 0  9998
2 45445  87.9038 185.9999 0001986 100.8017 259.3335 13.11417193193936
ONEWEB-0068             
1 45446U 20020Y   24070.56418441 -.00000330  00000+0 -96665-3 0  9995
2 45446  87.9036 185.7941 0001768 100.0533 260.0794 13.11414149194008
ONEWEB-0046             
1 45447U 20020Z   24070.02767148 -.00000559  00000+0 -16143-2 0  9993
2 45447  87.9034 185.9121 0002150 107.8361 252.3002 13.11415588193945
ONEWEB-0063             
1 45448U 20020AA  24069.59912273  .00000080  00000+0  19119-3 0  9999
2 45448  87.9037 185.9989 0002134 112.7344 247.4010 13.11417330193962
ONEWEB-0019             
1 45449U 20020AB  24070.56501271  .00009325  00000+0  26268-1 0  9993
2 45449  87.9038 185.8071 0002202 102.8385 257.2989 13.11365975193945
ONEWEB-0094             
1 45450U 20020AC  24070.51360611 -.00002729  00000+0 -70605-2 0  9999
2 45450  87.9257 170.6851 0002015 103.2251 256.9106 13.17671555197184
ONEWEB-0087             
1 45451U 20020AD  24069.75821663  .00000301  00000+0  81233-3 0  9995
2 45451  87.9030 185.9441 0002023  98.8779 261.2578 13.11418193193876
ONEWEB-0082             
1 45452U 20020AE  24069.60724512  .00000412  00000+0  11278-2 0  9999
2 45452  87.9035 185.9738 0001708 105.4795 254.6522 13.11417914193957
ONEWEB-0050             
1 45453U 20020AF  24069.67876197  .00002420  00000+0  25734-3 0  9998
2 45453  87.9981  53.3208 0006220  84.6830 275.5107 14.88593488216818
ONEWEB-0034             
1 45454U 20020AG  24070.08451070  .00000421  00000+0  11534-2 0  9996
2 45454  87.9033 185.8974 0001865 105.7282 254.4052 13.11415716193938
ONEWEB-0060             
1 45455U 20020AH  24070.55041198  .00000259  00000+0  69640-3 0  9996
2 45455  87.9038 185.8023 0002031 104.6086 255.5267 13.11418315193955
ONEWEB-0086             
1 45456U 20020AJ  24070.56824135 -.00000381  00000+0 -11121-2 0  9996
2 45456  87.9033 185.8038 0002005  93.4848 266.6509 13.11414898194000
ONEWEB-0088             
1 45457U 20020AK  24070.54552918  .00000438  00000+0  11996-2 0  9993
2 45457  87.9030 185.7777 0001946 103.9185 256.2159 13.11414919193943
ONEWEB-0102             
1 47258U 20100A   24069.52289574  .00000373  00000+0  10013-2 0  9991
2 47258  87.9034 155.8083 0001838 110.4539 249.6787 13.12442836155909
ONEWEB-0109             
1 47259U 20100B   24069.53083505  .00000448  00000+0  12112-2 0  9994
2 47259  87.9034 155.7700 0001779 107.6127 252.5196 13.12442075155733
ONEWEB-0110             
1 47260U 20100C   24069.47842027  .00000017  00000+0  11652-4 0  9993
2 47260  87.9029 155.7912 0001740 104.1549 255.9773 13.12440803155894
ONEWEB-0111             
1 47261U 20100D   24070.50285551 -.00000213  00000+0 -62620-3 0  9993
2 47261  87.9032 155.5802 0001811 105.7172 254.4157 13.12443859155864
ONEWEB-0114             
1 47262U 20100E   24070.15184829  .00000436  00000+0  11759-2 0  9992
2 47262  87.9030 155.6699 0001754 120.5222 239.6080 13.12441262155771
ONEWEB-0117             
1 47263U 20100F   24069.53401382  .00000440  00000+0  11881-2 0  9990
2 47263  87.9034 155.7627 0001946 104.4362 255.6982 13.12442145155700
ONEWEB-0118             
1 47264U 20100G   24070.17567442 -.00000249  00000+0 -72736-3 0  9999
2 47264  87.9034 155.6402 0002168 121.9752 238.1587 13.12441398155981
ONEWEB-0119             
1 47265U 20100H   24070.50921069  .00000006  00000+0 -18418-4 0  9994
2 47265  87.9031 155.6126 0001839 103.1370 256.9963 13.12443869156009
ONEWEB-0120             
1 47266U 20100J   24070.15059937  .00000424  00000+0  11407-2 0  9994
2 47266  87.9034 155.6714 0002251 105.0416 255.0962 13.12525342155989
ONEWEB-0121             
1 47267U 20100K   24069.52924899  .00000372  00000+0  99739-3 0  9999
2 47267  87.9030 155.7905 0001894  99.7344 260.3998 13.12442472155812
ONEWEB-0122             
1 47268U 20100L   24069.52434420  .00000366  00000+0  98208-3 0  9999
2 47268  87.9031 155.7960 0001754 107.0216 253.1105 13.12442902155729
ONEWEB-0123             
1 47269U 20100M   24070.51079948 -.00000515  00000+0 -14667-2 0  9995
2 47269  87.9039 155.6111 0002036 109.6039 250.5309 13.12447119155991
ONEWEB-0124             
1 47270U 20100N   24070.19473813 -.00000253  00000+0 -73970-3 0  9992
2 47270  87.9033 155.6696 0001895  95.8073 264.3272 13.12443273155833
ONEWEB-0125             
1 47271U 20100P   24069.48320127  .00000885  00000+0  24244-2 0  9990
2 47271  87.9038 155.7682 0002234 106.8257 253.3117 13.12437496155803
ONEWEB-0126             
1 47272U 20100Q   24070.50205574 -.00000248  00000+0 -72505-3 0  9993
2 47272  87.9031 155.5772 0001794 109.5314 250.6008 13.12445051156007
ONEWEB-0127             
1 47273U 20100R   24070.15820213  .00000336  00000+0  89922-3 0  9995
2 47273  87.9032 155.6700 0001829 109.4134 250.7192 13.12441025155987
ONEWEB-0128             
1 47274U 20100S   24070.48538518 -.00000321  00000+0 -92807-3 0  9998
2 47274  87.9041 155.6027 0001633  98.7383 261.3930 13.12441870156043
ONEWEB-0129             
1 47275U 20100T   24070.15978767  .00000227  00000+0  59633-3 0  9990
2 47275  87.9031 155.6399 0002067 154.8111 205.3119 13.12440342155937
ONEWEB-0130             
1 47276U 20100U   24070.49332632 -.00000305  00000+0 -88289-3 0  9991
2 47276  87.9030 155.5834 0001711 105.2369 254.8949 13.12442223155941
ONEWEB-0131             
1 47277U 20100V   24069.65152661 -.00000345  00000+0 -99465-3 0  9992
2 47277  87.9033 155.7619 0001812 101.9938 258.1394 13.12441266155874
ONEWEB-0132             
1 47278U 20100W   24070.51874069  .00000292  00000+0  77641-3 0  9994
2 47278  87.9033 155.5927 0002042  98.6453 261.4907 13.12443489155882
ONEWEB-0133             
1 47279U 20100X   24070.15345355  .00000407  00000+0  10967-2 0  9991
2 47279  87.9030 155.6693 0001897 100.6819 259.4523 13.12442953155996
ONEWEB-0134             
1 47280U 20100Y   24070.50444024 -.00000160  00000+0 -48004-3 0  9997
2 47280  87.9026 155.5886 0001618 103.3982 256.7326 13.12442792156014
ONEWEB-0135             
1 47281U 20100Z   24070.16773296  .00000002  00000+0 -29421-4 0  9993
2 47281  87.9035 155.6652 0001807 104.1914 255.9415 13.12440851155991
ONEWEB-0136             
1 47282U 20100AA  24070.18996281 -.00000374  00000+0 -10741-2 0  9993
2 47282  87.9033 155.6296 0001354 107.8856 252.2420 13.12443094155927
ONEWEB-0137             
1 47283U 20100AB  24069.68966315  .00000502  00000+0  13603-2 0  9993
2 47283  87.9029 155.7574 0001939 111.2369 248.8967 13.12441945155762
ONEWEB-0138             
1 47284U 20100AC  24070.50761844 -.00000082  00000+0 -26293-3 0  9992
2 47284  87.9029 155.6080 0001824 107.1727 252.9601 13.12443946155954
ONEWEB-0139             
1 47285U 20100AD  24070.17408536 -.00000146  00000+0 -44251-3 0  9997
2 47285  87.9035 155.6420 0001797 103.6653 256.4676 13.12441208155981
ONEWEB-0140             
1 47286U 20100AE  24070.19631834 -.00000173  00000+0 -51744-3 0  9994
2 47286  87.9028 155.6449 0001724 106.0508 254.0810 13.12443160155940
ONEWEB-0141             
1 47287U 20100AF  24069.68251491  .00000439  00000+0  11838-2 0  9996
2 47287  87.9032 155.7447 0002177 107.4065 252.7302 13.12442389155876
ONEWEB-0142             
1 47288U 20100AG  24070.51476366  .00000165  00000+0  42404-3 0  9991
2 47288  87.9030 155.5730 0001845 114.0949 246.0373 13.12445252155971
ONEWEB-0143             
1 47289U 20100AH  24069.47682686  .00000076  00000+0  17722-3 0  9995
2 47289  87.9033 155.7976 0001994 105.1926 254.9423 13.12440135155812
ONEWEB-0144             
1 47290U 20100AJ  24070.51714266  .00001326  00000+0  36483-2 0  9997
2 47290  87.9034 155.5760 0001625 118.1112 242.0181 13.12452310155879
ONEWEB-0145             
1 47291U 20100AK  24070.48858358  .00018365  00000+0  50981-1 0  9994
2 47291  87.9029 155.6051 0002604  94.3142 265.8284 13.12349314156062
ONEWEB-0146             
1 47292U 20100AL  24069.49270882 -.00000291  00000+0 -84316-3 0  9996
2 47292  87.9033 155.7844 0002230  96.1663 263.9720 13.12441506155847
ONEWEB-0147             
1 47293U 20100AM  24069.99302460  .00000504  00000+0  13648-2 0  9994
2 47293  87.9028 155.6836 0001550 103.0237 257.1064 13.12441828155800
ONEWEB-0115             
1 48042U 21025A   24070.21082612  .00000320  00000+0  84231-3 0  9998
2 48042  87.8945 125.2685 0002086  95.0286 265.1081 13.13469142144787
ONEWEB-0152             
1 48043U 21025B   24070.22351682  .00000354  00000+0  93311-3 0  9992
2 48043  87.8949 125.2593 0001935  96.8344 263.3005 13.13467782144746
ONEWEB-0153             
1 48044U 21025C   24070.20130268  .00000128  00000+0  31430-3 0  9999
2 48044  87.8951 125.2491 0001906 101.6184 258.5159 13.13469745144738
ONEWEB-0154             
1 48045U 21025D   24069.89341630  .00000146  00000+0  36375-3 0  9993
2 48045  87.8947 125.3247 0001947  98.6584 261.4766 13.13469938144649
ONEWEB-0116             
1 48046U 21025E   24069.85849177 -.00000077  00000+0 -24546-3 0  9991
2 48046  87.8953 125.2974 0002097  93.9227 266.2142 13.13467516144788
ONEWEB-0150             
1 48047U 21025F   24070.44252819  .00000336  00000+0  88600-3 0  9997
2 48047  87.8944 125.2062 0002036 103.9707 256.1648 13.13468929144750
ONEWEB-0107             
1 48048U 21025G   24069.91087395  .00000371  00000+0  98047-3 0  9998
2 48048  87.8945 125.3099 0002007 109.6356 250.4990 13.13468082144661
ONEWEB-0101             
1 48049U 21025H   24070.17907399 -.00000253  00000+0 -72864-3 0  9994
2 48049  87.8947 125.2663 0001812  99.6432 260.4902 13.13467547144676
